OMNI-L1                 
1 52157U 22033A   25155.21039632  .00002030  00000+0  27076-3 0  9993
2 52157  97.8684 236.6365 0007007  80.9101 279.2904 14.80659417171487
ENMAP                   
1 52159U 22033C   25155.50513237  .00000613  00000+0  98587-4 0  9996
2 52159  97.9788 238.1759 0001420  91.6769 268.4602 14.74970786170988
ARCSAT-1                
1 52161U 22033E   25155.22313430  .00006759  00000+0  15240-3 0  9992
2 52161  97.2929 239.5797 0007463 125.3931 234.8015 15.43550228177228
BRO-7                   
1 52174U 22033T   25155.52236968  .00907737  44308-3  12408-2 0  9990
2 52174  97.2833 254.3270 0008956 249.4981 110.5339 16.06263695178216
GLOBAL-18               
1 52196U 22034B   25155.56516044  .00013743  00000+0  36627-3 0  9997
2 52196  52.9851 245.8933 0005207 293.6014  66.4441 15.38466000178754
GAOFEN-3 03             
1 52200U 22035A   25155.60521852  .00000072  00000+0  35100-4 0  9999
2 52200  98.4091 164.5859 0000953 100.3589 259.7708 14.42216344166421
DAQI 1                  
1 52257U 22039A   25155.61210295  .00000427  00000+0  10349-3 0  9993
2 52257  98.2454  95.2708 0003309   9.6280 350.4982 14.57757868166930
JILIN-1 GAOFEN 4A       
1 52388U 22046A   25155.60445185  .00037007  00000+0  67931-3 0  9996
2 52388  97.4843 253.2590 0005146 268.7670  91.2991 15.49160790171744
JILIN-1 GAOFEN 3D05     
1 52390U 22046C   25155.56631509  .00022647  00000+0  55791-3 0  9996
2 52390  97.4844 252.8010 0002006 124.2863 235.8573 15.40587210171756
JILIN-1 GAOFEN 3D07     
1 52392U 22046E   25155.44973581  .00025160  00000+0  50403-3 0  9992
2 52392  97.4934 255.6538 0002307 112.3758 247.7736 15.46723943171865
BRO-6                   
1 52422U 22047AE  25155.52047839  .00010196  00000+0  29511-3 0  9993
2 52422  97.3643 238.8066 0005055  12.1452 347.9913 15.35776742172960
JILIN-1 GAOFEN 3D27     
1 52444U 22048B   25155.55492236  .00017534  00000+0  50437-3 0  9990
2 52444  97.5717 245.4618 0007806 340.4687  19.6256 15.35827155170975
JILIN-1 GAOFEN 3D28     
1 52445U 22048C   25155.55390748  .00017351  00000+0  49116-3 0  9995
2 52445  97.5682 245.2130 0006728   0.6089 359.5161 15.36340200170981
CONNECTA T1.1           
1 52739U 22057H   25155.34108808  .00025697  00000+0  41305-3 0  9996
2 52739  97.6096 294.7376 0003719 359.1028   1.0217 15.52992166168317
VIGORIDE-3              
1 52760U 22057AE  25155.42272581  .00002981  00000+0  13060-3 0  9997
2 52760  97.6122 283.0908 0009914  15.1622 344.9909 15.22786450167595
ION SCV-006             
1 52761U 22057AF  25155.33373684  .00006535  00000+0  19185-3 0  9997
2 52761  97.5635 285.1374 0022572  34.4681 325.8021 15.35256873167967
SHERPA-AC1              
1 52763U 22057AH  25155.32662546  .00005346  00000+0  19027-3 0  9990
2 52763  97.6185 287.1779 0008582   0.9505 359.1750 15.29380112167820
PLATFORM-1              
1 52770U 22057AQ  25155.34780309  .00066422  00000+0  69207-3 0  9995
2 52770  97.6053 299.1373 0003306 283.3697  76.7193 15.64338799168640
OMNI-L2                 
1 52771U 22057AR  25155.20311987  .00001870  00000+0  25481-3 0  9995
2 52771  97.5104 237.3865 0008465 119.4123 240.7936 14.79752351164464
STEP CUBE LAB-II        
1 52897U 22065D   25155.56342982  .00001150  00000+0  23681-3 0  9992
2 52897  98.1705 297.1088 0009886 124.1636 236.0505 14.62356615156295
RANDEV                  
1 52898U 22065E   25155.51865292  .00001191  00000+0  24317-3 0  9994
2 52898  98.1694 297.2633 0009186 124.9813 235.2252 14.62672805156021
SNUGLITE-II             
1 52899U 22065F   25155.36134363  .00001254  00000+0  25267-3 0  9991
2 52899  98.1681 297.3857 0008757 125.1029 235.0995 14.63201775155725
MIMAN                   
1 52900U 22065G   25155.33775054  .00000774  00000+0  16679-3 0  9992
2 52900  98.1726 296.1436 0008823 123.0334 237.1716 14.61158864155258
STARLINK-4362           
1 53043U 22077A   25155.50499977 -.00351242  00000+0 -30813-1 0  9995
2 53043  97.6559 337.2984 0018356  34.0456 326.1940 14.98394054159185
LARES-2                 
1 53105U 22080A   25151.42255743 -.00000008  00000+0  00000+0 0  9999
2 53105  70.1457  76.2451 0004954  57.9044 302.2009  6.38965122 67276
GREENCUBE (IO-117)      
1 53109U 22080E   25155.14351457 -.00000003  00000+0  00000+0 0  9990
2 53109  70.1412  69.7102 0008687  10.0327 350.0505  6.42583936 67773
STARLINK-4410           
1 53204U 22084R   25155.42246201  .00001306  00000+0  10622-3 0  9992
2 53204  97.6555 217.2203 0001413  99.5266 260.6118 15.01276574158226
COSMOS 2558             
1 53323U 22089A   25155.54983976  .00016358  00000+0  44794-3 0  9999
2 53323  97.2350 252.4350 0002615 359.2310   0.8931 15.37396422159279
TECMS                   
1 53346U 22090A   25155.44787008  .00003769  00000+0  17271-3 0  9995
2 53346  97.3572 228.2390 0003707  24.6441 335.4971 15.21065778157388
DONGPO 04               
1 53451U 22098H   25155.60351593  .00023218  00000+0  54970-3 0  9992
2 53451  97.5421 267.0411 0002142 313.3889  46.7179 15.41786669156372
DONGPO 02               
1 53452U 22098J   25155.55680653  .00017028  00000+0  47735-3 0  9992
2 53452  97.5277 263.8870 0003203 242.3729 117.7190 15.36664538156262
DONGPO 01               
1 53453U 22098K   25155.55236591  .00018115  00000+0  51350-3 0  9997
2 53453  97.5351 264.5008 0000632 125.4472 234.6831 15.36306319156256
STARLINK-4400           
1 53468U 22099D   25155.33335648  .00012871  00000+0  10049-2 0  9995
2 53468  97.6526 277.1351 0000972 158.4745 288.5693 15.01258317  5695
STARLINK-4621           
1 53676U 22105AE  25155.59350499 -.00000711  00000+0 -50767-4 0  9998
2 53676  97.6566  37.3746 0001905  53.4754 306.6645 15.01254617151516
SHERPA-LTC2             
1 53754U 22107BG  25155.30739914  .00002427  00000+0  14259-3 0  9998
2 53754  53.2392  13.9251 0412253 253.1586 102.3796 14.64719155147078
CENTISPACE-1 S3         
1 53757U 22108A   25155.55870483  .00000268  00000+0  93283-4 0  9992
2 53757  53.5309 175.9964 0010673  63.2145 296.9920 14.60603089146334
CENTISPACE-1 S4         
1 53758U 22108B   25155.56345661  .00000375  00000+0  11384-3 0  9999
2 53758  53.5284 175.1032 0010008  50.9528 309.2337 14.61134015146345
BLUEWALKER-3            
1 53807U 22111AL  25154.98671284  .00010156  00000+0  32498-3 0  9993
2 53807  53.2326   2.4249 0009094  90.9145 269.2899 15.33000329152095
YUNHAI-1 03             
1 53877U 22115A   25155.56114147  .00000355  00000+0  14629-3 0  9995
2 53877  98.5371 153.8904 0005530  96.4034 263.7780 14.32737588141449
CENTISPACE-1 S5         
1 54020U 22126A   25155.60045278  .00001306  00000+0  29580-3 0  9990
2 54020  54.9995 282.6797 0010327 306.2755  53.7284 14.61943469141794
CENTISPACE-1 S6         
1 54021U 22126B   25155.57532627  .00001016  00000+0  24085-3 0  9999
2 54021  54.9997 283.1928 0012180 306.9211  53.0666 14.61473190141776
OTB-3-GAZELLE           
1 54023U 22127A   25155.53419126  .00000214  00000+0  77457-4 0  9997
2 54023  98.3669 148.6430 0011962 246.1939 113.7997 14.42505796139919
ASO-S                   
1 54029U 22129A   25155.54230125  .00000313  00000+0  88670-4 0  9995
2 54029  98.2714 161.1541 0014522 168.2987 191.8549 14.51856752140621
HJ-2E                   
1 54035U 22132A   25155.59134197  .00007632  00000+0  33786-3 0  9991
2 54035  97.3800 162.0648 0005136 238.9488 121.1244 15.21920497146994
COSMOS 2561             
1 54109U 22137A   25155.54909066  .00008329  00000+0  20100-3 0  9998
2 54109  96.9719 225.1642 0010780 340.4336  19.6496 15.41379378147996
GONETS-M 23             
1 54150U 22139A   25155.56545785  .00000020  00000+0  73005-4 0  9995
2 54150  82.5065 222.9237 0020078 328.1017  31.8846 12.42891050118731
GONETS-M 24             
1 54151U 22139B   25155.53883436  .00000004  00000+0 -40815-4 0  9997
2 54151  82.4983 222.2588 0015350 340.4221  19.6267 12.42893869118734
GONETS-M 25             
1 54152U 22139C   25155.52536698  .00000016  00000+0  44081-4 0  9993
2 54152  82.5048 222.7516 0019089 337.8412  22.1841 12.42888999118734
SKIF-D                  
1 54153U 22139D   25154.52488660  .00000008  00000+0  00000+0 0  9997
2 54153  89.9729  96.7639 0007340 303.2333  56.7371  5.00427473 45162
MATS                    
1 54227U 22147A   25155.49147869  .00003950  00000+0  30449-3 0  9991
2 54227  97.6670 154.9007 0014605  38.7954 321.4316 15.02110303141007
JILIN-1 GAOFEN 03D54    
1 54254U 22155D   25155.55469399  .00020859  00000+0  52483-3 0  9991
2 54254  97.5854 278.1585 0005590 285.5783  74.4845 15.39949501141490
EOS-6 (OCEANSAT-3)      
1 54361U 22158A   25155.60850878  .00000406  00000+0  12362-3 0  9993
2 54361  98.3524 253.8740 0002233  72.3077 287.8359 14.46984144133236
ASTROCAST-0304          
1 54367U 22158G   25155.59256798  .00077258  00000+0  65321-3 0  9990
2 54367  97.4342 273.9279 0007603 223.1517 136.9150 15.69472279141229
ASTROCAST-0302          
1 54369U 22158J   25155.44223399  .00058861  00000+0  62851-3 0  9991
2 54369  97.4438 273.7582 0005390 221.3683 138.7168 15.63731472141188
ASTROCAST-0301          
1 54370U 22158K   25155.59434946  .00031497  00000+0  37906-3 0  9990
2 54370  97.4522 274.1597 0003490 233.5592 126.5344 15.60772629141208
DONGPO 09               
1 54685U 22167D   25155.56480223  .00009153  00000+0  35979-3 0  9997
2 54685  97.6562 308.6626 0003659  38.8327 321.3172 15.25905973137679
DONGPO 08               
1 54686U 22167E   25155.52953794  .00008402  00000+0  34800-3 0  9990
2 54686  97.6507 307.3320 0011148  61.9149 298.3213 15.24124385137620
2022-167F               
1 54687U 22167F   25155.55892180  .00017818  00000+0  40961-3 0  9991
2 54687  97.6169 311.2885 0003724 352.6678   7.4513 15.42726053137984
DONGPO 10               
1 54689U 22167H   25155.58075284  .00009039  00000+0  36753-3 0  9994
2 54689  97.6594 308.4842 0006143  19.0684 341.0782 15.24764306137649
